{
    "links": {
        "self": "http://www.neowsapp.com/rest/v1/neo/54055073?api_key=iIulBulltgU6a56xZRHN4H3l9WmuAYTsLGpBGhQ2"
    },
    "id": "54055073",
    "neo_reference_id": "54055073",
    "name": "(2020 TA2)",
    "designation": "2020 TA2",
    "nasa_jpl_url": "http://ssd.jpl.nasa.gov/sbdb.cgi?sstr=54055073",
    "absolute_magnitude_h": 23.744,
    "estimated_diameter": {
        "kilometers": {
            "estimated_diameter_min": 0.0473974499,
            "estimated_diameter_max": 0.10598392
        },
        "meters": {
            "estimated_diameter_min": 47.397449946,
            "estimated_diameter_max": 105.9839200393
        },
        "miles": {
            "estimated_diameter_min": 0.0294514009,
            "estimated_diameter_max": 0.0658553344
        },
        "feet": {
            "estimated_diameter_min": 155.5034496807,
            "estimated_diameter_max": 347.7162842217
        }
    },
    "is_potentially_hazardous_asteroid": false,
    "close_approach_data": [
        {
            "close_approach_date": "2020-10-03",
            "close_approach_date_full": "2020-Oct-03 14:40",
            "epoch_date_close_approach": 1601736000000,
            "relative_velocity": {
                "kilometers_per_second": "9.6903997587",
                "kilometers_per_hour": "34885.4391313433",
                "miles_per_hour": "21676.4552202505"
            },
            "miss_distance": {
                "astronomical": "0.1594703519",
                "lunar": "62.0339668891",
                "kilometers": "23856424.972390453",
                "miles": "14823695.0939681314"
            },
            "orbiting_body": "Earth"
        }
    ],
    "orbital_data": {
        "orbit_id": "4",
        "orbit_determination_date": "2020-11-15 04:55:27",
        "first_observation_date": "2020-10-08",
        "last_observation_date": "2020-11-15",
        "data_arc_in_days": 38,
        "observations_used": 25,
        "orbit_uncertainty": "6",
        "minimum_orbit_intersection": ".119571",
        "jupiter_tisserand_invariant": "3.329",
        "epoch_osculation": "2459000.5",
        "eccentricity": ".5288331706820036",
        "semi_major_axis": "2.357605101464908",
        "inclination": "10.83171683655202",
        "ascending_node_longitude": "194.6371622049923",
        "orbital_period": "1322.223953928566",
        "perihelion_distance": "1.110825320441154",
        "perihelion_argument": "160.3597958330718",
        "aphelion_distance": "3.604384882488663",
        "perihelion_time": "2459116.710838073141",
        "mean_anomaly": "328.3594435102854",
        "mean_motion": ".2722685509745721",
        "equinox": "J2000",
        "orbit_class": {
            "orbit_class_type": "AMO",
            "orbit_class_description": "Near-Earth asteroid orbits similar to that of 1221 Amor",
            "orbit_class_range": "1.017 AU < q (perihelion) < 1.3 AU"
        }
    },
    "is_sentry_object": false
}